start=new Date('2023-06-10T00:00:00.000Z').valueOf();
sats=[{"MEAN_ELEMENT_THEORY":"SGP4","MEAN_ANOMALY":"274.9526","TIME_SYSTEM":"UTC","TLE_LINE1":"1 52003U 22025AZ  23160.81879297 -.00004965  00000-0 -29418-3 0  9997","EPOCH":"2023-06-09T19:39:03.712608","CLASSIFICATION_TYPE":"U","RA_OF_ASC_NODE":"205.6706","COUNTRY_CODE":"US","REF_FRAME":"TEME","EPHEMERIS_TYPE":"0","TLE_LINE2":"2 52003  53.2141 205.6706 0000821  85.1560 274.9526 15.08826491 69374","INCLINATION":"53.2141","SITE":"AFETR","GP_ID":"233579905","ARG_OF_PERICENTER":"85.1560","FILE":"3929125","BSTAR":"-0.00029418000000","MEAN_MOTION_DDOT":"0.0000000000000","MEAN_MOTION":"15.08826491","REV_AT_EPOCH":"6937","LAUNCH_DATE":"2022-03-09","OBJECT_TYPE":"PAYLOAD","PERIAPSIS":"539.219","ELEMENT_SET_NO":"999","DECAY_DATE":null,"OBJECT_ID":"2022-025AZ","OBJECT_NAME":"STARLINK-3654","APOAPSIS":"540.355","SEMIMAJOR_AXIS":"6917.922","CENTER_NAME":"EARTH","RCS_SIZE":"LARGE","PERIOD":"95.438","NORAD_CAT_ID":"52003","ECCENTRICITY":"0.00008210","MEAN_MOTION_DOT":"-0.00004965"},{"REF_FRAME":"TEME","COUNTRY_CODE":"US","TLE_LINE2":"2 52088  53.2160 165.8106 0001028  80.9305 279.1803 15.08837620 70631","EPHEMERIS_TYPE":"0","INCLINATION":"53.2160","TIME_SYSTEM":"UTC","MEAN_ELEMENT_THEORY":"SGP4","MEAN_ANOMALY":"279.1803","EPOCH":"2023-06-09T17:31:50.775456","TLE_LINE1":"1 52088U 22029A   23160.73044879  .00000220  00000-0  31893-4 0  9994","CLASSIFICATION_TYPE":"U","RA_OF_ASC_NODE":"165.8106","REV_AT_EPOCH":"7063","MEAN_MOTION":"15.08837620","LAUNCH_DATE":"2022-03-19","OBJECT_TYPE":"PAYLOAD","SITE":"AFETR","GP_ID":"233580662","ARG_OF_PERICENTER":"80.9305","MEAN_MOTION_DDOT":"0.0000000000000","BSTAR":"0.00003189300000","FILE":"3929125","OBJECT_NAME":"STARLINK-3537","APOAPSIS":"540.464","ELEMENT_SET_NO":"999","PERIAPSIS":"539.042","OBJECT_ID":"2022-029A","DECAY_DATE":null,"NORAD_CAT_ID":"52088","MEAN_MOTION_DOT":"0.00000220","ECCENTRICITY":"0.00010280","SEMIMAJOR_AXIS":"6917.888","RCS_SIZE":"LARGE","CENTER_NAME":"EARTH","PERIOD":"95.438"},{"OBJECT_NAME":"STARLINK-3722","APOAPSIS":"541.590","DECAY_DATE":null,"OBJECT_ID":"2022-029B","ELEMENT_SET_NO":"999","PERIAPSIS":"537.896","NORAD_CAT_ID":"52089","MEAN_MOTION_DOT":"-0.00000400","ECCENTRICITY":"0.00026700","SEMIMAJOR_AXIS":"6917.878","PERIOD":"95.438","CENTER_NAME":"EARTH","RCS_SIZE":"LARGE","EPHEMERIS_TYPE":"0","TLE_LINE2":"2 52089  53.2128 277.7288 0002670 123.3880 236.7367 15.08840756 69034","COUNTRY_CODE":"US","REF_FRAME":"TEME","INCLINATION":"53.2128","TLE_LINE1":"1 52089U 22029B   23160.35972101 -.00000400  00000-0 -69779-5 0  9998","CLASSIFICATION_TYPE":"U","EPOCH":"2023-06-09T08:37:59.895264","MEAN_ELEMENT_THEORY":"SGP4","MEAN_ANOMALY":"236.7367","TIME_SYSTEM":"UTC","RA_OF_ASC_NODE":"277.7288","LAUNCH_DATE":"2022-03-19","MEAN_MOTION":"15.08840756","REV_AT_EPOCH":"6903","OBJECT_TYPE":"PAYLOAD","GP_ID":"233547132","SITE":"AFETR","BSTAR":"-0.00000697790000","FILE":"3928876","MEAN_MOTION_DDOT":"0.0000000000000","ARG_OF_PERICENTER":"123.3880"},{"GP_ID":"233552500","SITE":"AFETR","BSTAR":"-0.00004501400000","FILE":"3928942","MEAN_MOTION_DDOT":"0.0000000000000","ARG_OF_PERICENTER":"87.3956","LAUNCH_DATE":"2022-03-19","MEAN_MOTION":"15.08837754","REV_AT_EPOCH":"6907","OBJECT_TYPE":"PAYLOAD","TLE_LINE1":"1 52090U 22029C   23160.61363939 -.00001004  00000-0 -45014-4 0  9998","CLASSIFICATION_TYPE":"U","EPOCH":"2023-06-09T14:43:38.443296","MEAN_ANOMALY":"272.7128","MEAN_ELEMENT_THEORY":"SGP4","TIME_SYSTEM":"UTC","RA_OF_ASC_NODE":"276.5949","EPHEMERIS_TYPE":"0","TLE_LINE2":"2 52090  53.2154 276.5949 0000802  87.3956 272.7128 15.08837754 69077","COUNTRY_CODE":"US","REF_FRAME":"TEME","INCLINATION":"53.2154","SEMIMAJOR_AXIS":"6917.887","PERIOD":"95.438","CENTER_NAME":"EARTH","RCS_SIZE":"LARGE","NORAD_CAT_ID":"52090","ECCENTRICITY":"0.00008020","MEAN_MOTION_DOT":"-0.00001004","DECAY_DATE":null,"OBJECT_ID":"2022-029C","ELEMENT_SET_NO":"999","PERIAPSIS":"539.197","OBJECT_NAME":"STARLINK-3712","APOAPSIS":"540.307"},{"RA_OF_ASC_NODE":"275.9667","TLE_LINE1":"1 52091U 22029D   23160.75348242  .00026304  00000-0  16641-2 0  9994","CLASSIFICATION_TYPE":"U","EPOCH":"2023-06-09T18:05:00.881088","MEAN_ANOMALY":"280.8681","MEAN_ELEMENT_THEORY":"SGP4","TIME_SYSTEM":"UTC","INCLINATION":"53.2157","EPHEMERIS_TYPE":"0","TLE_LINE2":"2 52091  53.2157 275.9667 0001001  79.2424 280.8681 15.08852569 69090","COUNTRY_CODE":"US","REF_FRAME":"TEME","FILE":"3929125","BSTAR":"0.00166410000000","MEAN_MOTION_DDOT":"0.0000000000000","ARG_OF_PERICENTER":"79.2424","GP_ID":"233579911","SITE":"AFETR","OBJECT_TYPE":"PAYLOAD","LAUNCH_DATE":"2022-03-19","MEAN_MOTION":"15.08852569","REV_AT_EPOCH":"6909","DECAY_DATE":null,"OBJECT_ID":"2022-029D","ELEMENT_SET_NO":"999","PERIAPSIS":"539.014","APOAPSIS":"540.399","OBJECT_NAME":"STARLINK-3713","PERIOD":"95.437","RCS_SIZE":"LARGE","CENTER_NAME":"EARTH","SEMIMAJOR_AXIS":"6917.842","ECCENTRICITY":"0.00010010","MEAN_MOTION_DOT":"0.00026304","NORAD_CAT_ID":"52091"},{"ELEMENT_SET_NO":"999","PERIAPSIS":"538.664","DECAY_DATE":null,"OBJECT_ID":"2022-029E","OBJECT_NAME":"STARLINK-3716","APOAPSIS":"540.813","SEMIMAJOR_AXIS":"6917.874","RCS_SIZE":"LARGE","CENTER_NAME":"EARTH","PERIOD":"95.437","NORAD_CAT_ID":"52092","MEAN_MOTION_DOT":"0.00001456","ECCENTRICITY":"0.00015530","MEAN_ANOMALY":"263.7298","MEAN_ELEMENT_THEORY":"SGP4","TIME_SYSTEM":"UTC","CLASSIFICATION_TYPE":"U","TLE_LINE1":"1 52092U 22029E   23160.61732027  .00001456  00000-0  10955-3 0  9992","EPOCH":"2023-06-09T14:48:56.471328","RA_OF_ASC_NODE":"276.5763","COUNTRY_CODE":"US","REF_FRAME":"TEME","EPHEMERIS_TYPE":"0","TLE_LINE2":"2 52092  53.2149 276.5763 0001553  96.3871 263.7298 15.08842150 69071","INCLINATION":"53.2149","SITE":"AFETR","GP_ID":"233546882","ARG_OF_PERICENTER":"96.3871","BSTAR":"0.00010955000000","FILE":"3928876","MEAN_MOTION_DDOT":"0.0000000000000","MEAN_MOTION":"15.08842150","REV_AT_EPOCH":"6907","LAUNCH_DATE":"2022-03-19","OBJECT_TYPE":"PAYLOAD"},{"DECAY_DATE":null,"OBJECT_ID":"2022-029F","PERIAPSIS":"538.810","ELEMENT_SET_NO":"999","APOAPSIS":"540.657","OBJECT_NAME":"STARLINK-3673","PERIOD":"95.437","CENTER_NAME":"EARTH","RCS_SIZE":"LARGE","SEMIMAJOR_AXIS":"6917.868","MEAN_MOTION_DOT":"0.00000413","ECCENTRICITY":"0.00013350","NORAD_CAT_ID":"52093","RA_OF_ASC_NODE":"276.6346","TLE_LINE1":"1 52093U 22029F   23160.60723521  .00000413  00000-0  44029-4 0  9993","CLASSIFICATION_TYPE":"U","EPOCH":"2023-06-09T14:34:25.122144","MEAN_ANOMALY":"270.5978","MEAN_ELEMENT_THEORY":"SGP4","TIME_SYSTEM":"UTC","INCLINATION":"53.2166","EPHEMERIS_TYPE":"0","TLE_LINE2":"2 52093  53.2166 276.6346 0001335  89.5167 270.5978 15.08843939 69076","COUNTRY_CODE":"US","REF_FRAME":"TEME","FILE":"3928876","BSTAR":"0.00004402900000","MEAN_MOTION_DDOT":"0.0000000000000","ARG_OF_PERICENTER":"89.5167","GP_ID":"233546637","SITE":"AFETR","OBJECT_TYPE":"PAYLOAD","LAUNCH_DATE":"2022-03-19","MEAN_MOTION":"15.08843939","REV_AT_EPOCH":"6907"},{"ECCENTRICITY":"0.00014350","MEAN_MOTION_DOT":"-0.00000607","NORAD_CAT_ID":"52094","CENTER_NAME":"EARTH","RCS_SIZE":"LARGE","PERIOD":"95.438","SEMIMAJOR_AXIS":"6917.886","APOAPSIS":"540.744","OBJECT_NAME":"STARLINK-3714","ELEMENT_SET_NO":"999","PERIAPSIS":"538.759","OBJECT_ID":"2022-029G","DECAY_DATE":null,"OBJECT_TYPE":"PAYLOAD","REV_AT_EPOCH":"6907","MEAN_MOTION":"15.08838011","LAUNCH_DATE":"2022-03-19","ARG_OF_PERICENTER":"91.4682","MEAN_MOTION_DDOT":"0.0000000000000","FILE":"3928944","BSTAR":"-0.00002004200000","SITE":"AFETR","GP_ID":"233552396","INCLINATION":"53.2169","REF_FRAME":"TEME","COUNTRY_CODE":"US","TLE_LINE2":"2 52094  53.2169 276.6104 0001435  91.4682 268.6475 15.08838011 69072","EPHEMERIS_TYPE":"0","RA_OF_ASC_NODE":"276.6104","TIME_SYSTEM":"UTC","MEAN_ANOMALY":"268.6475","MEAN_ELEMENT_THEORY":"SGP4","EPOCH":"2023-06-09T14:38:21.035616","TLE_LINE1":"1 52094U 22029G   23160.60996569 -.00000607  00000-0 -20042-4 0  9994","CLASSIFICATION_TYPE":"U"},{"SITE":"AFETR","GP_ID":"233552518","ARG_OF_PERICENTER":"80.7618","FILE":"3928944","BSTAR":"0.00001760400000","MEAN_MOTION_DDOT":"0.0000000000000","MEAN_MOTION":"15.08841594","REV_AT_EPOCH":"6907","LAUNCH_DATE":"2022-03-19","OBJECT_TYPE":"PAYLOAD","MEAN_ANOMALY":"279.3481","MEAN_ELEMENT_THEORY":"SGP4","TIME_SYSTEM":"UTC","EPOCH":"2023-06-09T14:22:26.614560","TLE_LINE1":"1 52095U 22029H   23160.59891915 -.00000008  00000-0  17604-4 0  9996","CLASSIFICATION_TYPE":"U","RA_OF_ASC_NODE":"276.6591","COUNTRY_CODE":"US","REF_FRAME":"TEME","EPHEMERIS_TYPE":"0","TLE_LINE2":"2 52095  53.2174 276.6591 0000943  80.7618 279.3481 15.08841594 69078","INCLINATION":"53.2174","SEMIMAJOR_AXIS":"6917.876","RCS_SIZE":"LARGE","CENTER_NAME":"EARTH","PERIOD":"95.437","NORAD_CAT_ID":"52095","ECCENTRICITY":"0.00009430","MEAN_MOTION_DOT":"-0.00000008","ELEMENT_SET_NO":"999","PERIAPSIS":"539.088","DECAY_DATE":null,"OBJECT_ID":"2022-029H","OBJECT_NAME":"STARLINK-3701","APOAPSIS":"540.393"},{"APOAPSIS":"540.161","OBJECT_NAME":"STARLINK-3717","DECAY_DATE":null,"OBJECT_ID":"2022-029J","ELEMENT_SET_NO":"999","PERIAPSIS":"539.342","ECCENTRICITY":"0.00005920","MEAN_MOTION_DOT":"-0.00000555","NORAD_CAT_ID":"52096","PERIOD":"95.438","CENTER_NAME":"EARTH","RCS_SIZE":"LARGE","SEMIMAJOR_AXIS":"6917.886","INCLINATION":"53.2159","EPHEMERIS_TYPE":"0","TLE_LINE2":"2 52096  53.2159 266.7578 0000592  62.1814 297.9238 15.08838018 69195","COUNTRY_CODE":"US","REF_FRAME":"TEME","RA_OF_ASC_NODE":"266.7578","EPOCH":"2023-06-09T13:51:58.489920","TLE_LINE1":"1 52096U 22029J   23160.57776030 -.00000555  00000-0 -16789-4 0  9996","CLASSIFICATION_TYPE":"U","MEAN_ELEMENT_THEORY":"SGP4","MEAN_ANOMALY":"297.9238","TIME_SYSTEM":"UTC","OBJECT_TYPE":"PAYLOAD","LAUNCH_DATE":"2022-03-19","MEAN_MOTION":"15.08838018","REV_AT_EPOCH":"6919","BSTAR":"-0.00001678900000","FILE":"3928944","MEAN_MOTION_DDOT":"0.0000000000000","ARG_OF_PERICENTER":"62.1814","GP_ID":"233552525","SITE":"AFETR"}];
